*******************************************************************************
Ephemeris / WWW_USER Mon Mar 24 11:46:47 2025 Pasadena, USA      / Horizons    
*******************************************************************************
Target body name: (2018 VS1)                      {source: JPL#4}
Center body name: Earth (399)                     {source: DE441}
Center-site name: Gemini South Obs., Cerro Pachon
*******************************************************************************
Start time      : A.D. 2018-Aug-14 22:26:00.0000 UT      
Stop  time      : A.D. 2018-Aug-15 11:08:00.0000 UT      
Step-size       : 1 minutes
*******************************************************************************
Target pole/equ : undefined
Target radii    : undefined                                                    
Center geodetic : 289.2634, -30.2406227, 2.71233  {E-lon(deg),Lat(deg),Alt(km)}
Center cylindric: 289.2634,5517.21435,-3194.81213 {E-lon(deg),Dxy(km),Dz(km)}
Center pole/equ : ITRF93                          {East-longitude positive}
Center radii    : 6378.137, 6378.137, 6356.752 km {Equator_a, b, pole_c}       
Target primary  : Sun
Vis. interferer : MOON (R_eq= 1737.400) km        {source: DE441}
Rel. light bend : Sun                             {source: DE441}
Rel. lght bnd GM: 1.3271E+11 km^3/s^2                                          
Small-body perts: Yes                             {source: SB441-N16}
Atmos refraction: NO (AIRLESS)
RA format       : HMS
Time format     : CAL 
Calendar mode   : Mixed Julian/Gregorian
RTS-only print  : NO       
EOP file        : eop.250321.p250617                                           
EOP coverage    : DATA-BASED 1962-JAN-20 TO 2025-MAR-21. PREDICTS-> 2025-JUN-16
Units conversion: 1 au= 149597870.700 km, c= 299792.458 km/s, 1 day= 86400.0 s 
Table cut-offs 1: Elevation (-90.0deg=NO ),Airmass (>38.000=NO), Daylight (YES)
Table cut-offs 2: Solar elongation (  0.0,180.0=NO ),Local Hour Angle( 0.0=NO )
Table cut-offs 3: RA/DEC angular rate (     0.0=NO )                           
*******************************************************************************
Initial IAU76/J2000 heliocentric ecliptic osculating elements (au, days, deg.):
  EPOCH=  2458427.5 ! 2018-Nov-05.00 (TDB)         Residual RMS= .21634        
   EC= .3907275528854954   QR= .7806320880190512   TP= 2458486.1030618688      
   OM= 55.95483604725189   W=  67.17004921097404   IN= 3.601110299269385       
  Equivalent ICRF heliocentric cartesian coordinates (au, au/d):
   X= 7.595935200506908E-01  Y= 6.354459268576240E-01  Z= 2.586666727482118E-01
  VX=-1.643099138746886E-02 VY= 7.530892270769961E-03 VZ= 4.533522122669557E-03
Asteroid physical parameters (km, seconds, rotational period in hours):        
   GM= n.a.                RAD= n.a.               ROTPER= n.a.                
   H= 26.6                 G= .150                 B-V= n.a.                   
                           ALBEDO= n.a.            STYP= n.a.                  
*******************************************************************************
 Date__(UT)__HR:MN     R.A._________(ICRF)_________DEC
******************************************************
$$SOE
 2018-Aug-15 10:44 N   01 45 52.264956 +03 44 42.24199
 2018-Aug-15 10:45 N   01 45 52.320962 +03 44 42.41380
 2018-Aug-15 10:46 N   01 45 52.376974 +03 44 42.58560
 2018-Aug-15 10:47 N   01 45 52.432992 +03 44 42.75738
 2018-Aug-15 10:48 N   01 45 52.489015 +03 44 42.92915
 2018-Aug-15 10:49 N   01 45 52.545044 +03 44 43.10090
 2018-Aug-15 10:50 N   01 45 52.601079 +03 44 43.27264
 2018-Aug-15 10:51 N   01 45 52.657121 +03 44 43.44436
 2018-Aug-15 10:52 N   01 45 52.713168 +03 44 43.61607
 2018-Aug-15 10:53 C   01 45 52.769221 +03 44 43.78776
 2018-Aug-15 10:54 C   01 45 52.825281 +03 44 43.95943
 2018-Aug-15 10:55 C   01 45 52.881346 +03 44 44.13109
 2018-Aug-15 10:56 C   01 45 52.937418 +03 44 44.30274
 2018-Aug-15 10:57 C   01 45 52.993497 +03 44 44.47437
 2018-Aug-15 10:58 C   01 45 53.049581 +03 44 44.64599
 2018-Aug-15 10:59 C   01 45 53.105672 +03 44 44.81759
 2018-Aug-15 11:00 C   01 45 53.161770 +03 44 44.98917
 2018-Aug-15 11:01 C   01 45 53.217874 +03 44 45.16074
 2018-Aug-15 11:02 C   01 45 53.273984 +03 44 45.33230
 2018-Aug-15 11:03 C   01 45 53.330102 +03 44 45.50384
 2018-Aug-15 11:04 C   01 45 53.386225 +03 44 45.67536
 2018-Aug-15 11:05 C   01 45 53.442356 +03 44 45.84687
 2018-Aug-15 11:06 C   01 45 53.498493 +03 44 46.01837
 2018-Aug-15 11:07 C   01 45 53.554637 +03 44 46.18985
 2018-Aug-15 11:08 C   01 45 53.610788 +03 44 46.36131
